OBJECT_NAME,OBJECT_ID,EPOCH,MEAN_MOTION,ECCENTRICITY,INCLINATION,RA_OF_ASC_NODE,ARG_OF_PERICENTER,MEAN_ANOMALY,EPHEMERIS_TYPE,CLASSIFICATION_TYPE,NORAD_CAT_ID,ELEMENT_SET_NO,REV_AT_EPOCH,BSTAR,MEAN_MOTION_DOT,MEAN_MOTION_DDOT
FENGYUN 3D,2017-072A,2026-07-02T15:38:35.310048,14.19741024,.00021695,99.0132,158.3541,37.2253,322.9073,0,U,43010,999,44718,-.9732697E-4,-.252E-5,0
NOAA 20 (JPSS-1),2017-073A,2026-07-02T13:53:29.194368,14.19514528,.00008747,98.7773,122.9047,132.2595,227.8655,0,U,43013,999,44665,.57149367E-4,.76E-6,0
GOES 17,2018-022A,2026-07-02T13:33:20.994048,1.00271789,.00007383,0.9739,85.4701,41.4063,267.5678,0,U,43226,999,3057,0,-.172E-5,0
SENTINEL-3B,2018-039A,2026-07-02T11:28:21.061056,14.26739164,.00008533,98.6244,250.7906,115.3560,244.7708,0,U,43437,999,42630,.76067813E-4,.14E-5,0
FENGYUN 2H,2018-050A,2026-07-02T16:10:42.892320,1.00269455,.00017858,3.0694,78.8982,121.2418,42.5441,0,U,43491,999,2959,0,-.12E-5,0
METOP-C,2018-087A,2026-07-02T14:58:02.636832,14.21516363,.00021517,98.6637,242.9446,109.7578,250.3831,0,U,43689,999,39702,.81791501E-4,.136E-5,0
GEO-KOMPSAT-2A,2018-100A,2026-07-02T07:44:52.749600,1.00269062,.00022577,0.0475,176.1594,277.9346,70.7403,0,U,43823,999,2778,0,-.333E-5,0
METEOR-M2 2,2019-038A,2026-07-02T15:05:07.545984,14.24369674,.00014434,98.9147,171.1421,24.8572,335.2676,0,U,44387,999,36349,-.755481E-5,-.63E-6,0
ARKTIKA-M 1,2021-016A,2026-06-29T22:50:46.732128,2.00617895,.72928178,63.2520,55.7907,269.9910,14.5481,0,U,47719,999,3904,0,-.281E-5,0
FENGYUN 3E,2021-062A,2026-07-02T13:31:24.766176,14.19906210,.00026795,98.7489,186.8000,60.5348,299.6096,0,U,49008,999,25876,.15138179E-3,.277E-5,0
GOES 18,2022-021A,2026-07-02T12:21:38.757888,1.00271405,.00005555,0.0159,189.8494,312.8280,186.2815,0,U,51850,999,674,0,.107E-5,0
NOAA 21 (JPSS-2),2022-150A,2026-07-02T14:40:17.303232,14.19539269,.00024564,98.7060,122.1414,126.9456,233.1946,0,U,54234,999,18873,.48515288E-4,.59E-6,0
METEOSAT-12 (MTG-I1),2022-170C,2026-07-02T07:08:15.272736,1.00276260,.00036307,0.7547,25.2699,74.3202,287.5637,0,U,54743,999,1312,0,.4E-7,0
TIANMU-1 03,2023-039A,2026-07-02T13:39:46.617120,15.47723357,.0003643,97.5235,358.1450,60.2594,299.9018,0,U,55973,999,18321,.30697769E-3,.15808E-3,0
TIANMU-1 04,2023-039B,2026-07-02T13:15:58.118400,15.48337261,.00040542,97.5173,357.2828,54.6421,305.5207,0,U,55974,999,18322,.30134701E-3,.15853E-3,0
TIANMU-1 05,2023-039C,2026-07-02T14:46:15.629088,15.47650218,.00037324,97.5219,357.8022,77.6711,282.4956,0,U,55975,999,18320,.29701608E-3,.15252E-3,0
TIANMU-1 06,2023-039D,2026-07-02T14:55:18.322176,15.48238570,.00039603,97.5225,358.4602,72.8366,287.3318,0,U,55976,999,18323,.3000918E-3,.15731E-3,0
FENGYUN 3G,2023-055A,2026-07-02T14:43:23.876256,15.53312532,.00073222,49.9925,266.4994,1.0623,359.0359,0,U,56232,999,18240,.36352301E-3,.23012E-3,0
METEOR-M2 3,2023-091A,2026-07-02T15:02:03.778368,14.24048062,.00050088,98.6074,238.2883,118.4864,241.6821,0,U,57166,999,15671,.16999325E-4,-.4E-7,0
TIANMU-1 07,2023-101A,2026-07-02T14:26:06.411840,15.29987865,.00042764,97.2579,233.9166,90.5558,269.6173,0,U,57399,999,16400,.23587642E-3,.6775E-4,0
TIANMU-1 08,2023-101B,2026-07-02T13:38:00.621600,15.29991735,.00054854,97.2568,233.6524,78.3507,281.8349,0,U,57400,999,16399,.24207874E-3,.6957E-4,0
TIANMU-1 09,2023-101C,2026-07-02T14:47:49.419744,15.30028757,.00048914,97.2526,233.1077,92.9455,267.2346,0,U,57401,999,16400,.24533278E-3,.7059E-4,0
TIANMU-1 10,2023-101D,2026-07-02T14:01:38.233056,15.30001047,.00063401,97.2606,234.1426,87.1019,273.0948,0,U,57402,999,16399,.23540827E-3,.6766E-4,0
FENGYUN 3F,2023-111A,2026-07-02T14:49:11.927424,14.19941720,.00014847,98.6831,253.3384,82.7827,277.3519,0,U,57490,999,15105,.48559793E-4,.6E-6,0
ARKTIKA-M 2,2023-198A,2026-06-29T17:20:14.637696,2.00610643,.69058771,63.2199,152.9641,267.3845,18.7575,0,U,58584,999,1857,0,.148E-5,0
TIANMU-1 11,2023-205A,2026-07-02T14:00:07.310880,15.27153603,.00072292,97.3437,204.8995,318.4904,41.5786,0,U,58645,999,13987,.22975792E-3,.6048E-4,0
TIANMU-1 12,2023-205B,2026-07-02T10:09:37.320768,15.27051163,.00053091,97.3426,204.4940,296.9950,63.0746,0,U,58646,999,13983,.25583885E-3,.672E-4,0
TIANMU-1 13,2023-205C,2026-07-02T14:06:25.007616,15.26974736,.00049743,97.3454,204.9314,270.3095,89.7574,0,U,58647,999,13985,.24276043E-3,.6357E-4,0
TIANMU-1 14,2023-205D,2026-07-02T13:44:27.913056,15.27019048,.00057695,97.3391,204.0861,277.6929,82.3655,0,U,58648,999,13985,.23550151E-3,.6174E-4,0
TIANMU-1 19,2023-208A,2026-07-02T13:46:45.066144,15.31806969,.00036373,97.4523,299.9552,252.2848,107.7997,0,U,58660,999,13968,.28346756E-3,.8629E-4,0
