FENGYUN 3D              
1 43010U 17072A   26183.65179757 -.00000252  00000+0 -97327-4 0  9994
2 43010  99.0132 158.3541 0002169  37.2253 322.9073 14.19741024447184
NOAA 20 (JPSS-1)        
1 43013U 17073A   26183.57881012  .00000076  00000+0  57149-4 0  9993
2 43013  98.7773 122.9047 0000874 132.2595 227.8655 14.19514528446655
GOES 17                 
1 43226U 18022A   26183.56482632 -.00000172  00000+0  00000+0 0  9995
2 43226   0.9739  85.4701 0000738  41.4063 267.5678  1.00271789 30579
SENTINEL-3B             
1 43437U 18039A   26183.47802154  .00000140  00000+0  76068-4 0  9998
2 43437  98.6244 250.7906 0000853 115.3560 244.7708 14.26739164426302
FENGYUN 2H              
1 43491U 18050A   26183.67410755 -.00000120  00000+0  00000+0 0  9992
2 43491   3.0694  78.8982 0001785 121.2418  42.5441  1.00269455 29594
METOP-C                 
1 43689U 18087A   26183.62364163  .00000136  00000+0  81792-4 0  9995
2 43689  98.6637 242.9446 0002151 109.7578 250.3831 14.21516363397023
GEO-KOMPSAT-2A          
1 43823U 18100A   26183.32283275 -.00000333  00000+0  00000+0 0  9990
2 43823   0.0475 176.1594 0002257 277.9346  70.7403  1.00269062 27786
METEOR-M2 2             
1 44387U 19038A   26183.62855956 -.00000063  00000+0 -75548-5 0  9997
2 44387  98.9147 171.1421 0001443  24.8572 335.2676 14.24369674363496
ARKTIKA-M 1             
1 47719U 21016A   26180.95192977 -.00000281  00000+0  00000+0 0  9994
2 47719  63.2520  55.7907 7292817 269.9910  14.5481  2.00617895 39040
FENGYUN 3E              
1 49008U 21062A   26183.56348109  .00000277  00000+0  15138-3 0  9994
2 49008  98.7489 186.8000 0002679  60.5348 299.6096 14.19906210258763
GOES 18                 
1 51850U 22021A   26183.51503192  .00000107  00000+0  00000+0 0  9998
2 51850   0.0159 189.8494 0000555 312.8280 186.2815  1.00271405  6746
NOAA 21 (JPSS-2)        
1 54234U 22150A   26183.61131138  .00000059  00000+0  48515-4 0  9992
2 54234  98.7060 122.1414 0002456 126.9456 233.1946 14.19539269188739
METEOSAT-12 (MTG-I1)    
1 54743U 22170C   26183.29739899  .00000004  00000+0  00000+0 0  9993
2 54743   0.7547  25.2699 0003630  74.3202 287.5637  1.00276260 13120
TIANMU-1 03             
1 55973U 23039A   26183.56928955  .00015808  00000+0  30698-3 0  9995
2 55973  97.5235 358.1450 0003643  60.2594 299.9018 15.47723357183217
TIANMU-1 04             
1 55974U 23039B   26183.55275600  .00015853  00000+0  30135-3 0  9993
2 55974  97.5173 357.2828 0004054  54.6421 305.5207 15.48337261183222
TIANMU-1 05             
1 55975U 23039C   26183.61545867  .00015252  00000+0  29702-3 0  9997
2 55975  97.5219 357.8022 0003732  77.6711 282.4956 15.47650218183206
TIANMU-1 06             
1 55976U 23039D   26183.62173984  .00015731  00000+0  30009-3 0  9990
2 55976  97.5225 358.4602 0003960  72.8366 287.3318 15.48238570183234
FENGYUN 3G              
1 56232U 23055A   26183.61347079  .00023012  00000+0  36352-3 0  9999
2 56232  49.9925 266.4994 0007322   1.0623 359.0359 15.53312532182403
METEOR-M2 3             
1 57166U 23091A   26183.62643262 -.00000004  00000+0  16999-4 0  9993
2 57166  98.6074 238.2883 0005008 118.4864 241.6821 14.24048062156715
TIANMU-1 07             
1 57399U 23101A   26183.60146310  .00006775  00000+0  23588-3 0  9994
2 57399  97.2579 233.9166 0004276  90.5558 269.6173 15.29987865164000
TIANMU-1 08             
1 57400U 23101B   26183.56806275  .00006957  00000+0  24208-3 0  9997
2 57400  97.2568 233.6524 0005485  78.3507 281.8349 15.29991735163996
TIANMU-1 09             
1 57401U 23101C   26183.61654421  .00007059  00000+0  24533-3 0  9993
2 57401  97.2526 233.1077 0004891  92.9455 267.2346 15.30028757164008
TIANMU-1 10             
1 57402U 23101D   26183.58447029  .00006766  00000+0  23541-3 0  9996
2 57402  97.2606 234.1426 0006340  87.1019 273.0948 15.30001047163993
FENGYUN 3F              
1 57490U 23111A   26183.61749916  .00000060  00000+0  48560-4 0  9998
2 57490  98.6831 253.3384 0001484  82.7827 277.3519 14.19941720151055
ARKTIKA-M 2             
1 58584U 23198A   26180.72239164  .00000148  00000+0  00000+0 0  9995
2 58584  63.2199 152.9641 6905877 267.3845  18.7575  2.00610643 18573
TIANMU-1 11             
1 58645U 23205A   26183.58341795  .00006048  00000+0  22976-3 0  9998
2 58645  97.3437 204.8995 0007229 318.4904  41.5786 15.27153603139871
TIANMU-1 12             
1 58646U 23205B   26183.42334862  .00006720  00000+0  25584-3 0  9994
2 58646  97.3426 204.4940 0005309 296.9950  63.0746 15.27051163139833
TIANMU-1 13             
1 58647U 23205C   26183.58778944  .00006357  00000+0  24276-3 0  9998
2 58647  97.3454 204.9314 0004974 270.3095  89.7574 15.26974736139853
TIANMU-1 14             
1 58648U 23205D   26183.57254529  .00006174  00000+0  23550-3 0  9997
2 58648  97.3391 204.0861 0005769 277.6929  82.3655 15.27019048139857
TIANMU-1 19             
1 58660U 23208A   26183.57413271  .00008629  00000+0  28347-3 0  9991
2 58660  97.4523 299.9552 0003637 252.2848 107.7997 15.31806969139683
